$$SOE
2460721.500000000, A.D. 2025-Feb-15 00:00:00.0000, -1.697574344177700E+08, 3.770059530735884E+08, 3.603040200782605E+07,
2460728.500000000, A.D. 2025-Feb-22 00:00:00.0000, -1.791534936415367E+08, 3.737514753010777E+08, 3.641317699439844E+07,
2460735.500000000, A.D. 2025-Mar-01 00:00:00.0000, -1.884286991616208E+08, 3.702451725105464E+08, 3.677139306598723E+07,
2460742.500000000, A.D. 2025-Mar-08 00:00:00.0000, -1.975777035810475E+08, 3.664911828466817E+08, 3.710498544823273E+07,
2460749.500000000, A.D. 2025-Mar-15 00:00:00.0000, -2.065952790776317E+08, 3.624936802477395E+08, 3.741389935867697E+07,
2460756.500000000, A.D. 2025-Mar-22 00:00:00.0000, -2.154763151191155E+08, 3.582568734859621E+08, 3.769808986798511E+07,
2460763.500000000, A.D. 2025-Mar-29 00:00:00.0000, -2.242158149646375E+08, 3.537850032131193E+08, 3.795752148022278E+07,
2460770.500000000, A.D. 2025-Apr-05 00:00:00.0000, -2.328088906290739E+08, 3.490823401338533E+08, 3.819216765756246E+07,
2460777.500000000, A.D. 2025-Apr-12 00:00:00.0000, -2.412507582370875E+08, 3.441531844002251E+08, 3.840201047340108E+07,
2460784.500000000, A.D. 2025-Apr-19 00:00:00.0000, -2.495367339523889E+08, 3.390018653341886E+08, 3.858704033768614E+07,
2460791.500000000, A.D. 2025-Apr-26 00:00:00.0000, -2.576622302094259E+08, 3.336327412625623E+08, 3.874725575170521E+07,
2460798.500000000, A.D. 2025-May-03 00:00:00.0000, -2.656227521333416E+08, 3.280501994726833E+08, 3.888266308243415E+07,
2460805.500000000, A.D. 2025-May-10 00:00:00.0000, -2.734138941191813E+08, 3.222586562877368E+08, 3.899327635363740E+07,
2460812.500000000, A.D. 2025-May-17 00:00:00.0000, -2.810313365330667E+08, 3.162625572120327E+08, 3.907911704621238E+07,
2460819.500000000, A.D. 2025-May-24 00:00:00.0000, -2.884708423607324E+08, 3.100663770837604E+08, 3.914021388668647E+07,
2460826.500000000, A.D. 2025-May-31 00:00:00.0000, -2.957282533849864E+08, 3.036746205386564E+08, 3.917660261034937E+07,
2460833.500000000, A.D. 2025-Jun-07 00:00:00.0000, -3.027994862931775E+08, 2.970918239825237E+08, 3.918832583377247E+07,
2460840.500000000, A.D. 2025-Jun-14 00:00:00.0000, -3.096805310804932E+08, 2.903225584011919E+08, 3.917543319881324E+07,
2460847.500000000, A.D. 2025-Jun-21 00:00:00.0000, -3.163674505309237E+08, 2.833714297330510E+08, 3.913798140880440E+07,
2460854.500000000, A.D. 2025-Jun-28 00:00:00.0000, -3.228563776444194E+08, 2.762430785613457E+08, 3.907603401362212E+07,
2460861.500000000, A.D. 2025-Jul-05 00:00:00.0000, -3.291435125287133E+08, 2.689421812761759E+08, 3.898966125872631E+07,
2460868.500000000, A.D. 2025-Jul-12 00:00:00.0000, -3.352251199493529E+08, 2.614734518987198E+08, 3.887894004159768E+07,
2460875.500000000, A.D. 2025-Jul-19 00:00:00.0000, -3.410975273486135E+08, 2.538416439901965E+08, 3.874395391107534E+07,
2460882.500000000, A.D. 2025-Jul-26 00:00:00.0000, -3.467571231235937E+08, 2.460515525856054E+08, 3.858479308559419E+07,
2460889.500000000, A.D. 2025-Aug-02 00:00:00.0000, -3.522003550991361E+08, 2.381080161707304E+08, 3.840155448605710E+07,
2460896.500000000, A.D. 2025-Aug-09 00:00:00.0000, -3.574237291737326E+08, 2.300159186851601E+08, 3.819434178005651E+07,
2460903.500000000, A.D. 2025-Aug-16 00:00:00.0000, -3.624238080634040E+08, 2.217801914858920E+08, 3.796326542535931E+07,
2460910.500000000, A.D. 2025-Aug-23 00:00:00.0000, -3.671972098531245E+08, 2.134058152859890E+08, 3.770844268736999E+07,
2460917.500000000, A.D. 2025-Aug-30 00:00:00.0000, -3.717406060294420E+08, 2.048978227801668E+08, 3.742999765901117E+07,
2460924.500000000, A.D. 2025-Sep-06 00:00:00.0000, -3.760507204164814E+08, 1.962613029554023E+08, 3.712806149520149E+07,
2460931.500000000, A.D. 2025-Sep-13 00:00:00.0000, -3.801243306922611E+08, 1.875014046032116E+08, 3.680277281283394E+07,
2460938.500000000, A.D. 2025-Sep-20 00:00:00.0000, -3.839582692161229E+08, 1.786233373899579E+08, 3.645427782220473E+07,
2460945.500000000, A.D. 2025-Sep-27 00:00:00.0000, -3.875494221106050E+08, 1.696323735943702E+08, 3.608273034736542E+07,
2460952.500000000, A.D. 2025-Oct-04 00:00:00.0000, -3.908947286209470E+08, 1.605338510487572E+08, 3.568829196483837E+07,
2460959.500000000, A.D. 2025-Oct-11 00:00:00.0000, -3.939911811340331E+08, 1.513331763415998E+08, 3.527113221844430E+07,
2460966.500000000, A.D. 2025-Oct-18 00:00:00.0000, -3.968358255785760E+08, 1.420358280083118E+08, 3.483142886210297E+07,
2460973.500000000, A.D. 2025-Oct-25 00:00:00.0000, -3.994257620708080E+08, 1.326473597206108E+08, 3.436936811871275E+07,
2460980.500000000, A.D. 2025-Nov-01 00:00:00.0000, -4.017581457704294E+08, 1.231734034873050E+08, 3.388514495264180E+07,
2460987.500000000, A.D. 2025-Nov-08 00:00:00.0000, -4.038301879188520E+08, 1.136196728308213E+08, 3.337896335012260E+07,
2460994.500000000, A.D. 2025-Nov-15 00:00:00.0000, -4.056391569220386E+08, 1.039919658766702E+08, 3.285103658955343E+07,
2461001.500000000, A.D. 2025-Nov-22 00:00:00.0000, -4.071823790879778E+08, 9.429616857321611E+07, 3.230158748335924E+07,
2461008.500000000, A.D. 2025-Nov-29 00:00:00.0000, -4.084572391852257E+08, 8.453825917526777E+07, 3.173084869881617E+07,
2461015.500000000, A.D. 2025-Dec-06 00:00:00.0000, -4.094611831135527E+08, 7.472431385386084E+07, 3.113906335608801E+07,
2461022.500000000, A.D. 2025-Dec-13 00:00:00.0000, -4.101917222679428E+08, 6.486051006062967E+07, 3.052648558878456E+07,
2461029.500000000, A.D. 2025-Dec-20 00:00:00.0000, -4.106464361149712E+08, 5.495312866892793E+07, 2.989338083075059E+07,
2461036.500000000, A.D. 2025-Dec-27 00:00:00.0000, -4.108229740648980E+08, 4.500855747834390E+07, 2.924002613957919E+07,
2461043.500000000, A.D. 2026-Jan-03 00:00:00.0000, -4.107190581124583E+08, 3.503329545946996E+07, 2.856671064068496E+07,
2461050.500000000, A.D. 2026-Jan-10 00:00:00.0000, -4.103324861541524E+08, 2.503395705336674E+07, 2.787373602699448E+07,
2461057.500000000, A.D. 2026-Jan-17 00:00:00.0000, -4.096611357670764E+08, 1.501727642784667E+07, 2.716141708614600E+07,
2461064.500000000, A.D. 2026-Jan-24 00:00:00.0000, -4.087029683889174E+08, 4.990111705552307E+06, 2.643008225057513E+07,
2461071.500000000, A.D. 2026-Jan-31 00:00:00.0000, -4.074560338942062E+08, -5.040550852926504E+06, 2.568007416836762E+07,
2461078.500000000, A.D. 2026-Feb-07 00:00:00.0000, -4.059184755251341E+08, -1.506759277911447E+07, 2.491175028517850E+07,
2461085.500000000, A.D. 2026-Feb-14 00:00:00.0000, -4.040885349448401E+08, -2.508375946761912E+07, 2.412548341335478E+07,
2461092.500000000, A.D. 2026-Feb-21 00:00:00.0000, -4.019645570473430E+08, -3.508165582519387E+07, 2.332166230041473E+07,
2461099.500000000, A.D. 2026-Feb-28 00:00:00.0000, -3.995449956313496E+08, -4.505374036113078E+07, 2.250069239105756E+07,
2461106.500000000, A.D. 2026-Mar-07 00:00:00.0000, -3.968284220212475E+08, -5.499231968892249E+07, 2.166299681244260E+07,
2461113.500000000, A.D. 2026-Mar-14 00:00:00.0000, -3.938135338877310E+08, -6.488954579343368E+07, 2.080901713786149E+07,
2461120.500000000, A.D. 2026-Mar-21 00:00:00.0000, -3.904991625116503E+08, -7.473741318707584E+07, 1.993921400239918E+07,
2461127.500000000, A.D. 2026-Mar-28 00:00:00.0000, -3.868842805232762E+08, -8.452775495136251E+07, 1.905406783876856E+07,
2461134.500000000, A.D. 2026-Apr-04 00:00:00.0000, -3.829680107447435E+08, -9.425223866039906E+07, 1.815407970918288E+07,
2461141.500000000, A.D. 2026-Apr-11 00:00:00.0000, -3.787496358885384E+08, -1.039023625810705E+08, 1.723977217804472E+07,
2461148.500000000, A.D. 2026-Apr-18 00:00:00.0000, -3.742286089796397E+08, -1.134694521946972E+08, 1.631169020957948E+07,
2461155.500000000, A.D. 2026-Apr-25 00:00:00.0000, -3.694045644816453E+08, -1.229446570682956E+08, 1.537040208656491E+07,
2461162.500000000, A.D. 2026-May-02 00:00:00.0000, -3.642773301226493E+08, -1.323189481534179E+08, 1.441650034388388E+07,
2461169.500000000, A.D. 2026-May-09 00:00:00.0000, -3.588469393235068E+08, -1.415831156322877E+08, 1.345060269875264E+07,
2461176.500000000, A.D. 2026-May-16 00:00:00.0000, -3.531136438777889E+08, -1.507277672310428E+08, 1.247335295253501E+07,
2461183.500000000, A.D. 2026-May-23 00:00:00.0000, -3.470779268572716E+08, -1.597433260405888E+08, 1.148542194060351E+07,
2461190.500000000, A.D. 2026-May-30 00:00:00.0000, -3.407405178441848E+08, -1.686200275944027E+08, 1.048750874385291E+07,
2461197.500000000, A.D. 2026-Jun-06 00:00:00.0000, -3.341024108289267E+08, -1.773479195539259E+08, 9.480341919442572E+06,
2461204.500000000, A.D. 2026-Jun-13 00:00:00.0000, -3.271648811284149E+08, -1.859168638867402E+08, 8.464680426176839E+06,
2461211.500000000, A.D. 2026-Jun-20 00:00:00.0000, -3.199295018423920E+08, -1.943165386997787E+08, 7.441314524380520E+06,
2461218.500000000, A.D. 2026-Jun-27 00:00:00.0000, -3.123981615542516E+08, -2.025364401614337E+08, 6.411066772086650E+06,
2461225.500000000, A.D. 2026-Jul-04 00:00:00.0000, -3.045730832772037E+08, -2.105658853894915E+08, 5.374793046918035E+06,
2461232.500000000, A.D. 2026-Jul-11 00:00:00.0000, -2.964568443850765E+08, -2.183940165470860E+08, 4.333383551333144E+06,
2461239.500000000, A.D. 2026-Jul-18 00:00:00.0000, -2.880523974184325E+08, -2.260098062395656E+08, 3.287763785725459E+06,
2461246.500000000, A.D. 2026-Jul-25 00:00:00.0000, -2.793630917139489E+08, -2.334020643390426E+08, 2.238895477183044E+06,
2461253.500000000, A.D. 2026-Aug-01 00:00:00.0000, -2.703926957725900E+08, -2.405594464265857E+08, 1.187777444032326E+06,
2461260.500000000, A.D. 2026-Aug-08 00:00:00.0000, -2.611454201076578E+08, -2.474704640392665E+08, 1.354463605770469E+05,
2461267.500000000, A.D. 2026-Aug-15 00:00:00.0000, -2.516259401023393E+08, -2.541234964279362E+08, -9.170225935247391E+05,
2461274.500000000, A.D. 2026-Aug-22 00:00:00.0000, -2.418394195647896E+08, -2.605068027633018E+08, -1.968515045292765E+06,
2461281.500000000, A.D. 2026-Aug-29 00:00:00.0000, -2.317915371744601E+08, -2.666085363257649E+08, -3.017876621348470E+06,
2461288.500000000, A.D. 2026-Sep-05 00:00:00.0000, -2.214885135687445E+08, -2.724167637168243E+08, -4.063912470815256E+06,
$$EOE